NORAD_CAT_ID,OBJECT_NAME,OBJECT_TYPE,EPOCH,MEAN_MOTION,ECCENTRICITY,INCLINATION,RA_OF_ASC_NODE,ARG_OF_PERICENTER,MEAN_ANOMALY,BSTAR,MEAN_MOTION_DOT,MEAN_MOTION_DDOT,TLE_LINE0,TLE_LINE1,TLE_LINE2,SEMIMAJOR_AXIS,PERIOD,APOGEE,PERIGEE,DECAYED
52636.0,STARLINK-3967,PAYLOAD,2022-07-07 12:14:33,15.60628505,0.0001179,53.2148,174.27200000000005,86.491,273.624,-0.0065339,-0.00517486,0.0,0 STARLINK-3967,1 52636U 22052AQ  22188.51011005 -.00517486  00000-0 -65339-2 0  9998,2 52636  53.2148 174.2720 0001179  86.4910 273.6240 15.60628505  8455,6763.977,92.271,386.64,385.045,0.0
52636.0,STARLINK-3967,PAYLOAD,2022-07-07 20:00:01,15.59255557,9.96e-05,53.2174,172.7326,98.6771,277.3184,-0.014561,-0.01060364,0.0,0 STARLINK-3967,1 52636U 22052AQ  22188.83334491 -.01060364  00000-0 -14561-1 0  9999,2 52636  53.2174 172.7326 0000996  98.6771 277.3184 15.59255557  8870,6767.946999999999,92.352,390.486,389.138,0.0
52636.0,STARLINK-3967,PAYLOAD,2022-07-07 22:00:00,15.59067846,0.0001185,53.2175,172.3294,92.2457,31.7608,-0.014709,-0.01063255,0.0,0 STARLINK-3967,1 52636U 22052AQ  22188.91667824 -.01063255  00000-0 -14709-1 0  9993,2 52636  53.2175 172.3294 0001185  92.2457  31.7608 15.59067846  1309,6768.491,92.363,391.158,389.554,0.0
52636.0,STARLINK-3967,PAYLOAD,2022-07-08 08:00:01,15.58118715,0.0001135,53.2177,170.3179,79.3578,223.8553,-0.015249,-0.01063152,0.0,0 STARLINK-3967,1 52636U 22052AQ  22189.33334491 -.01063152  00000-0 -15249-1 0  9997,2 52636  53.2177 170.3179 0001135  79.3578 223.8553 15.58118715  8958,6771.239000000001,92.419,393.87300000000016,392.335,0.0
52636.0,STARLINK-3967,PAYLOAD,2022-07-08 12:51:43,15.58560558,0.0001903,53.2144,169.3136,181.6389,178.4618,-0.00687,-0.00503633,0.0,0 STARLINK-3967,1 52636U 22052AQ  22189.53591917 -.00503633  00000-0 -68700-2 0  9990,2 52636  53.2144 169.3136 0001903 181.6389 178.4618 15.58560558  8619,6769.959,92.393,393.11300000000006,390.536,0.0
52636.0,STARLINK-3967,PAYLOAD,2022-07-08 22:00:01,15.5678694,0.0001069,53.2177,167.50099999999995,90.6281,245.1477,-0.015959,-0.01058541,0.0,0 STARLINK-3967,1 52636U 22052AQ  22189.91668981 -.01058541  00000-0 -15959-1 0  9999,2 52636  53.2177 167.5010 0001069  90.6281 245.1477 15.56786940  1306,6775.1,92.498,397.689,396.241,0.0
52636.0,STARLINK-3967,PAYLOAD,2022-07-09 04:00:00,15.56217929,0.0001161,53.2176,166.2982,76.0201,221.3321,-0.016316,-0.01059346,0.0,0 STARLINK-3967,1 52636U 22052AQ  22190.16667824 -.01059346  00000-0 -16316-1 0  9995,2 52636  53.2176 166.2982 0001161  76.0201 221.3321 15.56217929  9085,6776.752,92.532,399.403,397.83,0.0
52636.0,STARLINK-3967,PAYLOAD,2022-07-09 14:00:01,15.55270176,0.0001143,53.2173,164.2923,92.0582,20.224,-0.016946,-0.01061845,0.0,0 STARLINK-3967,1 52636U 22052AQ  22190.58334491 -.01061845  00000-0 -16946-1 0  9998,2 52636  53.2173 164.2923 0001143  92.0582  20.2240 15.55270176  1300,6779.504,92.588,402.144,400.594,0.0
52636.0,STARLINK-3967,PAYLOAD,2022-07-09 20:00:01,15.54699001,0.0001112,53.2173,163.0893,72.2346,0.3225,-0.017281,-0.0106032,0.0,0 STARLINK-3967,1 52636U 22052AQ  22190.83334491 -.01060320  00000-0 -17281-1 0  9996,2 52636  53.2173 163.0893 0001112  72.2346   0.3225 15.54699001  9195,6781.165,92.622,403.784,402.276,0.0
52636.0,STARLINK-3967,PAYLOAD,2022-07-10 12:00:00,15.53181782,0.0001242,53.2171,159.8913,83.9091,120.1991,-0.018307,-0.01062241,0.0,0 STARLINK-3967,1 52636U 22052AQ  22191.50001157 -.01062241  00000-0 -18307-1 0  9995,2 52636  53.2171 159.8913 0001242  83.9091 120.1991 15.53181782  9292,6785.58,92.713,408.288,406.602,0.0
52636.0,STARLINK-3967,PAYLOAD,2022-07-10 14:00:01,15.52992705,0.0001088,53.2174,159.4912,90.6678,219.6277,-0.018455,-0.01063313,0.0,0 STARLINK-3967,1 52636U 22052AQ  22191.58334491 -.01063313  00000-0 -18455-1 0  9998,2 52636  53.2174 159.4912 0001088  90.6678 219.6277 15.52992705  1303,6786.130999999999,92.724,408.734,407.258,0.0
52636.0,STARLINK-3967,PAYLOAD,2022-07-10 22:00:00,15.52229933,0.0001066,53.2175,157.8937,83.9616,290.5144,-0.01885,-0.01056984,0.0,0 STARLINK-3967,1 52636U 22052AQ  22191.91667824 -.01056984  00000-0 -18850-1 0  9999,2 52636  53.2175 157.8937 0001066  83.9616 290.5144 15.52229933  1303,6788.354,92.77,410.942,409.495,0.0
52636.0,STARLINK-3967,PAYLOAD,2022-07-11 04:00:00,15.51661754,0.0001111,53.2173,156.69899999999996,79.5552,252.4549,-0.019293,-0.01059571,0.0,0 STARLINK-3967,1 52636U 22052AQ  22192.16667824 -.01059571  00000-0 -19293-1 0  9994,2 52636  53.2173 156.6990 0001111  79.5552 252.4549 15.51661754  9391,6790.011,92.804,412.63,411.122,0.0
52636.0,STARLINK-3967,PAYLOAD,2022-07-11 14:00:01,15.50608121,0.0001102,53.2174,154.7054,78.0352,62.0796,-0.01421,-0.00762851,0.0,0 STARLINK-3967,1 52636U 22052AQ  22192.58334491 -.00762851  00000-0 -14210-1 0  9996,2 52636  53.2174 154.7054 0001102  78.0352  62.0796 15.50608121  1304,6793.0859999999975,92.867,415.7,414.203,0.0
52636.0,STARLINK-3967,PAYLOAD,2022-07-11 22:00:00,15.49950178,0.0001228,53.2176,153.1114,78.1484,123.4246,-0.0018198,-0.00102628,0.0,0 STARLINK-3967,1 52636U 22052AQ  22192.91667824 -.00102628  00000-0 -18198-2 0  9992,2 52636  53.2176 153.1114 0001228  78.1484 123.4246 15.49950178  1304,6795.009,92.906,417.708,416.039,0.0
52636.0,STARLINK-3967,PAYLOAD,2022-07-12 14:00:01,15.4991224,0.0001375999999999,53.216,149.9149,89.9337,233.6104,-0.00030301,-0.00017627,0.0,0 STARLINK-3967,1 52636U 22052AQ  22193.58334491 -.00017627  00000-0 -30301-3 0  9992,2 52636  53.2160 149.9149 0001376  89.9337 233.6104 15.49912240  1304,6795.12,92.908,417.92,416.05,0.0
52636.0,STARLINK-3967,PAYLOAD,2022-07-12 22:00:00,15.49934899,0.000134,53.2164,148.3217,96.499,287.9615,-0.0014576,-0.00082458,0.0,0 STARLINK-3967,1 52636U 22052AQ  22193.91667824 -.00082458  00000-0 -14576-2 0  9997,2 52636  53.2164 148.3217 0001340  96.4990 287.9615 15.49934899  1309,6795.053000000001,92.907,417.829,416.008,0.0
52636.0,STARLINK-3967,PAYLOAD,2022-07-13 04:00:00,15.49868749,0.0001264999999999,53.2166,147.1311,88.6623,251.5256,-0.00016825,-9.983e-05,0.0,0 STARLINK-3967,1 52636U 22052AQ  22194.16667824 -.00009983  00000-0 -16825-3 0  9997,2 52636  53.2166 147.1311 0001265  88.6623 251.5256 15.49868749  9705,6795.246999999999,92.911,417.971,416.252,0.0
52636.0,STARLINK-3967,PAYLOAD,2022-07-13 12:00:02,15.50015378,0.0001002,53.2165,145.5426,85.0452,316.0719,-0.010756,-0.00570972,0.0,0 STARLINK-3967,1 52636U 22052AQ  22194.50002315 -.00570972  00000-0 -10756-1 0  9999,2 52636  53.2165 145.5426 0001002  85.0452 316.0719 15.50015378  9764,6794.818,92.902,417.364,416.002,0.0
52636.0,STARLINK-3967,PAYLOAD,2022-07-13 14:00:01,15.49897236,0.0001053,53.2173,145.145,87.5379,58.7674,-0.009654,-0.00514063,0.0,0 STARLINK-3967,1 52636U 22052AQ  22194.58334491 -.00514063  00000-0 -96540-2 0  9995,2 52636  53.2173 145.1450 0001053  87.5379  58.7674 15.49897236  1308,6795.163000000001,92.909,417.744,416.31300000000016,0.0
52636.0,STARLINK-3967,PAYLOAD,2022-07-13 22:00:00,15.49686623,0.0001217,53.2174,143.5574,103.4903,103.4972,-0.02083,-0.01065265,0.0,0 STARLINK-3967,1 52636U 22052AQ  22194.91667824 -.01065265  00000-0 -20830-1 0  9995,2 52636  53.2174 143.5574 0001217 103.4903 103.4972 15.49686623  1306,6795.779,92.922,418.471,416.817,0.0
52636.0,STARLINK-3967,PAYLOAD,2022-07-14 04:00:00,15.49111392,0.0001299,53.2173,142.3673,82.6287,79.5982,-0.021113,-0.010586,0.0,0 STARLINK-3967,1 52636U 22052AQ  22195.16667824 -.01058600  00000-0 -21113-1 0  9993,2 52636  53.2173 142.3673 0001299  82.6287  79.5982 15.49111392  9864,6797.4609999999975,92.957,420.209,418.443,0.0
52636.0,STARLINK-3967,PAYLOAD,2022-07-14 14:00:01,15.48163318,0.0001103,53.2175,140.382,101.9777,224.5041,-0.021889,-0.01061075,0.0,0 STARLINK-3967,1 52636U 22052AQ  22195.58334491 -.01061075  00000-0 -21889-1 0  9990,2 52636  53.2175 140.3820 0001103 101.9777 224.5041 15.48163318  1304,6800.236,93.013,422.851,421.351,0.0
52636.0,STARLINK-3967,PAYLOAD,2022-07-14 20:00:01,15.47591006,0.0001239,53.2175,139.1923,101.5353,178.8156,-0.022205,-0.01055567,0.0,0 STARLINK-3967,1 52636U 22052AQ  22195.83334491 -.01055567  00000-0 -22205-1 0  9990,2 52636  53.2175 139.1923 0001239 101.5353 178.8156 15.47591006  9966,6801.913000000001,93.048,424.62,422.935,0.0
52636.0,STARLINK-3967,PAYLOAD,2022-07-14 22:00:00,15.47402649,0.0001089,53.2176,138.7969,94.8251,290.0336,-0.022417,-0.01058321,0.0,0 STARLINK-3967,1 52636U 22052AQ  22195.91667824 -.01058321  00000-0 -22417-1 0  9994,2 52636  53.2176 138.7969 0001089  94.8251 290.0336 15.47402649  1307,6802.464,93.059,425.07,423.589,0.0
52636.0,STARLINK-3967,PAYLOAD,2022-07-15 12:00:00,15.46073338,0.0001068,53.2175,136.0278,99.1461,295.6758,-0.023473,-0.01058062,0.0,0 STARLINK-3967,1 52636U 22052AQ  22196.50001157 -.01058062  00000-0 -23473-1 0  9996,2 52636  53.2175 136.0278 0001068  99.1461 295.6758 15.46073338 10079,6806.363,93.139,428.955,427.501,0.0
52636.0,STARLINK-3967,PAYLOAD,2022-07-15 14:00:01,15.45882397,0.0001226,53.2176,135.6321,96.4814,42.3935,-0.02358,-0.01056118,0.0,0 STARLINK-3967,1 52636U 22052AQ  22196.58334491 -.01056118  00000-0 -23580-1 0  9993,2 52636  53.2176 135.6321 0001226  96.4814  42.3935 15.45882397  1304,6806.924,93.151,429.62300000000016,427.954,0.0
52636.0,STARLINK-3967,PAYLOAD,2022-07-15 22:00:00,15.4512249,0.0001313,53.2178,134.0527,93.5137,100.9999,-0.024183,-0.01055198,0.0,0 STARLINK-3967,1 52636U 22052AQ  22196.91667824 -.01055198  00000-0 -24183-1 0  9996,2 52636  53.2178 134.0527 0001313  93.5137 100.9999 15.45122490  1302,6809.155,93.196,431.914,430.126,0.0
52636.0,STARLINK-3967,PAYLOAD,2022-07-16 04:00:00,15.44554242,0.000129,53.2177,132.8705,89.2442,56.3981,-0.024709,-0.01057103,0.0,0 STARLINK-3967,1 52636U 22052AQ  22197.16667824 -.01057103  00000-0 -24709-1 0  9996,2 52636  53.2177 132.8705 0001290  89.2442  56.3981 15.44554242 10173,6810.825,93.231,433.569,431.812,0.0
